NEOSSAT                 
1 39089U 13009D   26080.47328041  .00000198  00000+0  83100-4 0  9990
2 39089  98.4149 262.5966 0011692 143.4179 216.7808 14.35791715684159
STRAND-1                
1 39090U 13009E   26080.47021715  .00000325  00000+0  12383-3 0  9996
2 39090  98.3896 262.8694 0009584 129.0220 231.1821 14.37104522684460
BRITE-AUSTRIA           
1 39091U 13009F   26080.44574724  .00000205  00000+0  84254-4 0  9991
2 39091  98.3965 262.0595 0011006 137.6572 222.5466 14.36502712684457
SBIRS GEO-2 (USA 241)   
1 39120U 13011A   26080.40421332 -.00000282  00000+0  00000+0 0  9997
2 39120   4.2993  52.4031 0002329 307.4349 274.7912  1.00271687 47651
EUTELSAT 117 WEST A     
1 39122U 13012A   26080.53357778  .00000000  00000+0  00000+0 0  9993
2 39122   0.0087 169.7074 0002868 187.3747 257.2550  1.00269763 47550
ANIK G1                 
1 39127U 13014A   26080.46415748 -.00000072  00000+0  00000+0 0  9994
2 39127   0.0015 171.9831 0002735 161.4895 265.2952  1.00271458 47371
GAOFEN-1                
1 39150U 13018A   26080.57517552  .00001118  00000+0  16738-3 0  9992
2 39150  97.9156 154.4006 0017024 183.6823 176.4264 14.76502305695319
NEE-01 PEGASO           
1 39151U 13018B   26079.62350260  .00002894  00000+0  28253-3 0  9995
2 39151  98.1075 220.9462 0013955  96.3410 263.9398 14.93172651697485
COSMOS 2485 [GLONASS-M] 
1 39155U 13019A   26080.15855461  .00000039  00000+0  00000+0 0  9998
2 39155  65.3700  76.5576 0025462 237.4047 122.3632  2.13103277100408
ZHONGXING-11            
1 39157U 13020A   26080.50480432 -.00000288  00000+0  00000+0 0  9990
2 39157   0.0448  54.5991 0000805 339.5312  64.5298  1.00270287 47029
PROBA-V                 
1 39159U 13021A   26080.54377107  .00000064  00000+0  45968-4 0  9999
2 39159  98.3524  63.5086 0004916  41.8964 318.2591 14.23576582668642
VNREDSAT 1              
1 39160U 13021B   26080.58940727  .00000593  00000+0  11940-3 0  9998
2 39160  97.9188 137.3213 0001548  82.5816 277.5563 14.64905632687467
EUTELSAT 7B             
1 39163U 13022A   26080.55793123  .00000050  00000+0  00000+0 0  9994
2 39163   0.0699   7.2899 0006245 353.1009  26.5254  1.00272438 47069
NAVSTAR 68 (USA 242)    
1 39166U 13023A   26079.93481740  .00000018  00000+0  00000+0 0  9991
2 39166  54.5742 272.5668 0141868  50.1915 311.0525  2.00563969 94111
WGS F5 (USA 243)        
1 39168U 13024A   26080.47499087 -.00000283  00000+0  00000+0 0  9993
2 39168   0.0137 175.6551 0000165 118.2595   3.5668  1.00270529 46298
SES-6                   
1 39172U 13026A   26080.47733088 -.00000259  00000+0  00000+0 0  9995
2 39172   0.0506 291.9647 0001869  80.9209 297.4321  1.00272738 46845
COSMOS 2486             
1 39177U 13028A   26080.60938816 -.00000173  00000+0 -29319-4 0  9998
2 39177  98.0056  51.4598 0009677 292.9114  67.1063 14.56150746678638
O3B FM5                 
1 39188U 13031A   26080.28816977 -.00000014  00000+0  00000+0 0  9995
2 39188   0.1003   9.5127 0003274 341.1691   9.3109  5.00116433232631
O3B FM4                 
1 39189U 13031B   26077.80879038 -.00000014  00000+0  00000+0 0  9997
2 39189   0.0540 346.0358 0005299  31.5061 342.4744  5.00115508232517
O3B FM2                 
1 39190U 13031C   26080.27313219 -.00000014  00000+0  00000+0 0  9998
2 39190   0.0539 338.8400 0002808  19.0806   2.0769  5.00115943232716
O3B PFM                 
1 39191U 13031D   26080.48713776 -.00000015  00000+0  00000+0 0  9995
2 39191   0.0686   5.5291 0005315  11.0580 343.4289  5.00116279232276
IRIS                    
1 39197U 13033A   26080.54846773  .00001336  00000+0  15980-3 0  9997
2 39197  97.9393 280.0760 0023292 244.4870 115.3937 14.85681526687366
IRNSS-1A                
1 39199U 13034A   26078.61919625  .00000097  00000+0  00000+0 0  9998
2 39199  35.5249  65.1477 0017129 191.1572 198.6544  1.00274618 46474
SJ-11-05                
1 39202U 13035A   26080.62267455  .00000485  00000+0  10024-3 0  9997
2 39202  98.2838 264.8265 0010624 143.7701 216.4223 14.64791425676412
MUOS-2                  
1 39206U 13036A   26080.16293234 -.00000009  00000+0  00000+0 0  9997
2 39206   4.8202  45.3605 0051776 183.2682 180.6640  1.00270741 46318
SHIYAN-7 (SY-7)         
1 39208U 13037A   26080.56797851  .00000702  00000+0  11933-3 0  9998
2 39208  98.0905  84.2411 0009186  70.0125 290.2071 14.72170231679319
CHUANGXIN-3 (CX-3)      
1 39209U 13037B   26080.52434854  .00001178  00000+0  18517-3 0  9999
2 39209  98.0844  86.9486 0005375  63.7908 296.3853 14.74425149679438
SHIJIAN-15 (SJ-15)      
1 39210U 13037C   26080.57682929  .00000771  00000+0  13261-3 0  9993
2 39210  98.1057  83.9468 0007508  71.4672 288.7350 14.71378480681441
ALPHASAT                
1 39215U 13038A   26080.13381221  .00000137  00000+0  00000+0 0  9991
2 39215   2.9852   2.0806 0001745  19.2393 230.3789  1.00270546 43136
INSAT-3D                
1 39216U 13038B   26080.58237131 -.00000336  00000+0  00000+0 0  9993
2 39216   1.6985  83.6593 0001626 238.8530 195.8081  1.00272168 46201
WGS F6 (USA 244)        
1 39222U 13041A   26080.17336314  .00000000  00000+0  00000+0 0  9999
2 39222   0.0193 158.3573 0000794 156.7694 150.7833  1.00270835 45184
ARIRANG-5 (KOMPSAT-5)   
1 39227U 13042A   26080.57466521  .00001044  00000+0  78848-4 0  9992
2 39227  97.6208 268.4944 0005261  83.6075 276.5750 15.04513778690689
ES'HAIL 1               
1 39233U 13044A   26080.56174457  .00000145  00000+0  00000+0 0  9995
2 39233   0.0612   7.2656 0002759 345.7073  53.8319  1.00273471 45743
GSAT-7                  
1 39234U 13044B   26080.50003764 -.00000075  00000+0  00000+0 0  9995
2 39234   0.0672  89.8413 0006054 205.6918 137.4751  1.00271251 44372
AMOS-4                  
1 39237U 13045A   26080.21780861  .00000009  00000+0  00000+0 0  9993
2 39237   0.0268 224.5849 0003533 137.9167 319.6462  1.00273119 46076
YAOGAN-17 01A           
1 39239U 13046A   26080.60369646  .00000135  00000+0  22425-3 0  9992
2 39239  63.3886 316.1454 0418533  11.4654 349.5553 13.45496989616501
YAOGAN-17 01B           
1 39240U 13046B   26080.64681792  .00000048  00000+0  13754-3 0  9995
2 39240  63.3897 316.6370 0418625  11.0065 349.9778 13.45464898616553
YAOGAN-17 01C           
1 39241U 13046C   26080.61958306  .00000096  00000+0  18520-3 0  9990
2 39241  63.3893 315.5123 0419428  11.0900 349.9026 13.45470895616598
GONETS-M 5              
1 39249U 13048A   26080.53441837  .00000037  00000+0  19221-3 0  9991
2 39249  82.4839  38.0154 0017715  46.0710 314.1829 12.42888828567998
GONETS-M 6              
1 39250U 13048B   26080.59349706  .00000024  00000+0  97194-4 0  9993
2 39250  82.4865  38.8691 0020340  76.8182 283.5165 12.43027700568061
GONETS-M 7              
1 39251U 13048C   26080.57947604 -.00000046  00000+0 -40319-3 0  9995
2 39251  82.4899  40.8638 0018537  47.1422 313.1211 12.42911012567952
HISAKI (SPRINT-A)       
1 39253U 13049A   26080.63383296  .00000145  00000+0  11126-3 0  9998
2 39253  29.7204 305.1374 0136473  26.9404 333.8177 13.55532248619534
AEHF-3 (USA 246)        
1 39256U 13050A   26080.53210443  .00000033  00000+0  00000+0 0  9996
2 39256   5.0777  67.9862 0090304 188.2850 350.1406  1.00268220 44771
FENGYUN 3C              
1 39260U 13052A   26080.54919669  .00000087  00000+0  65384-4 0  9990
2 39260  98.4910  58.4845 0013485 276.5201  83.4438 14.15732641646168
CASSIOPE                
1 39265U 13055A   26080.54053600  .00049634 -21682-6  59378-3 0  9995
2 39265  80.9184 172.6871 0311628 356.7050   3.2115 15.19630592654330
POPACS 2                
1 39269U 13055E   26080.47818678  .00032529  00000+0  55923-3 0  9995
2 39269  80.9901 244.4009 0428561 115.2121 249.4164 14.88479844650154
POPACS 3                
1 39270U 13055F   26080.37693179  .00013611  00000+0  32964-3 0  9994
2 39270  81.0038 324.2854 0558270 337.2215  20.5046 14.54287418625780
ASTRA 2E                
1 39285U 13056A   26080.56235124  .00000152  00000+0  00000+0 0  9992
2 39285   0.1017  52.1203 0002581 307.6936  50.1756  1.00272488 45534
SHIJIAN-16 (SJ-16)      
1 39358U 13057A   26080.62878707  .00000638  00000+0  65026-4 0  9994
2 39358  74.9737 162.4885 0015297  81.8079 278.4844 14.92389076673280
FM-6                    
1 39360U 13058A   26080.03449181 -.00000013  00000+0  00000+0 0  9997
2 39360   0.0255 128.9088 0002893  55.9521 249.7617  1.00268926 45188
RADUGA-1M 3             
1 39375U 13062A   26080.56365124  .00000157  00000+0  00000+0 0  9998
2 39375   5.7373  73.4522 0000309 241.7660 101.7751  1.00270675 45228
YAOGAN-19               
1 39410U 13065A   26080.63136795 -.00000372  00000+0 -87525-3 0  9991
2 39410 100.1045  60.9659 0008803 291.8161  68.2015 13.15576770592136
APRIZESAT 7             
1 39416U 13066A   26080.60143940  .00001434  00000+0  14780-3 0  9996
2 39416  97.7619  35.1428 0036927 139.7176 220.6789 14.91320518668174
ZACUBE-1 (TSHEPISOSAT)  
1 39417U 13066B   26080.60117557  .00005310  00000+0  41863-3 0  9991
2 39417  97.8159  42.4833 0043964 180.7865 179.3297 15.00427881667597
SKYSAT-A                
1 39418U 13066C   26080.41238736  .00003967  00000+0  23088-3 0  9999
2 39418  97.3927 132.5909 0020057 256.6381 103.2614 15.12434076675219
DUBAISAT-2              
1 39419U 13066D   26080.58956088  .00005039  00000+0  31812-3 0  9991
2 39419  97.4541  73.0885 0010817 343.5029  16.5847 15.09473636673171
OPTOS                   
1 39420U 13066E   26080.60145396  .00001448  00000+0  21509-3 0  9990
2 39420  97.6937 310.2079 0115723 294.2353  64.6798 14.72091954658630
STSAT-3                 
1 39422U 13066G   26080.60299574  .00003593  00000+0  27713-3 0  9996
2 39422  97.6105  51.9973 0010400 332.8506  27.2174 15.02180098671052
WNISAT-1                
1 39423U 13066H   26080.36752178  .00001492  00000+0  27886-3 0  9991
2 39423  97.7065 235.8256 0164272 148.1666 212.9592 14.57913345653930
